[{"OBJECT_NAME":"STARLINK-30884","OBJECT_ID":"2023-177X","EPOCH":"2026-03-09T22:00:01.999584","MEAN_MOTION":15.23769209,"ECCENTRICITY":0.00017969,"INCLINATION":43.001,"RA_OF_ASC_NODE":349.4779,"ARG_OF_PERICENTER":279.7239,"MEAN_ANOMALY":317.8416,"EPHEMERIS_TYPE":0,"CLASSIFICATION_TYPE":"U","NORAD_CAT_ID":58372,"ELEMENT_SET_NO":999,"REV_AT_EPOCH":577,"BSTAR":0.046347095,"MEAN_MOTION_DOT":0.01242915,"MEAN_MOTION_DDOT":0},{"OBJECT_NAME":"TRANSPORTER-12 OBJECT AZ","OBJECT_ID":"2025-009AZ","EPOCH":"2026-03-09T17:02:46.667040","MEAN_MOTION":15.30349724,"ECCENTRICITY":9.87e-5,"INCLINATION":97.3981,"RA_OF_ASC_NODE":151.9913,"ARG_OF_PERICENTER":45.3581,"MEAN_ANOMALY":314.774,"EPHEMERIS_TYPE":0,"CLASSIFICATION_TYPE":"U","NORAD_CAT_ID":62656,"ELEMENT_SET_NO":999,"REV_AT_EPOCH":6379,"BSTAR":0.00054902545,"MEAN_MOTION_DOT":0.00016057,"MEAN_MOTION_DDOT":0}]
